{
  "norad_id": 52835,
  "name": "STARLINK-4080",
  "history": [
    {
      "epoch": "2026-03-28T21:37:13.201536Z",
      "apogee_km": 540.6165790051891,
      "perigee_km": 538.8676008136772,
      "latitude_deg": -2.4746310720655097e-05,
      "longitude_deg": 157.26012371696515,
      "height_km": 540.5549476107906,
      "semi_major_axis_km": 6917.879089909433,
      "eccentricity": 0.00012641,
      "inclination_deg": 53.217,
      "raan_deg": 307.8798,
      "arg_perigee_deg": 84.5569,
      "mean_anomaly_deg": 275.5567,
      "mean_motion_rev_day": 15.08840425
    }
  ]
}